     2.11           N: GPS NAV DATA                         RINEX VERSION / TYPE
teqc  2019Feb25                         20221121 12:23:43UTCPGM / RUN BY / DATE
OSX ker:10.11.6|Core i5|gcc 4.3 -m64|OSX ker:10.10+|=+      COMMENT
    6.5193D-09  2.2352D-08 -5.9605D-08 -1.1921D-07          ION ALPHA
    8.6016D+04  9.8304D+04 -6.5536D+04 -5.2429D+05          ION BETA
   -9.313225746155D-10 8.881784197001D-16    61440     1534 DELTA-UTC: A0,A1,T,W
                                                            END OF HEADER
 8 09  5 30  4  0  0.0-2.054059877992D-04-1.705302565824D-12 0.000000000000D+00
    9.100000000000D+01-5.406250000000D+00 4.189460222120D-09 8.909375911268D-03
   -2.086162567139D-07 1.058402971830D-02 3.889203071594D-06 5.153645568848D+03
    5.328000000000D+05 1.210719347000D-07 2.804121593777D+00-6.519258022308D-08
    9.888382648314D-01 3.169062500000D+02 2.990935218697D+00-8.291773957096D-09
    2.817974522807D-10 1.000000000000D+00 1.533000000000D+03 0.000000000000D+00
    2.800000000000D+00 0.000000000000D+00-3.725290298462D-09 9.100000000000D+01
    5.256180000000D+05 4.000000000000D+00
 6 09  5 30  3 59 44.0 1.422883942723D-04 1.432454155292D-11 0.000000000000D+00
    1.200000000000D+01-6.000000000000D+00 5.193787770679D-09-1.733568885577D+00
   -1.937150955200D-07 5.990633857436D-03 1.012720167637D-05 5.153706878662D+03
    5.327840000000D+05-4.470348358154D-08-1.491794415888D+00 1.359730958939D-07
    9.334218147081D-01 1.705312500000D+02-1.358207894948D+00-8.229985669080D-09
    1.739358165535D-10 1.000000000000D+00 1.533000000000D+03 0.000000000000D+00
    2.000000000000D+00 0.000000000000D+00-4.656612873077D-09 1.200000000000D+01
    5.256180000000D+05 4.000000000000D+00
 7 09  5 30  4  0  0.0 1.799594610929D-05-6.821210263297D-13 0.000000000000D+00
    1.040000000000D+02 1.250000000000D+00 4.567690262634D-09 7.364982584516D-01
    1.173466444016D-07 2.594735473394D-03 3.760680556297D-06 5.153668272018D+03
    5.328000000000D+05 1.043081283569D-07 2.743724871657D+00-9.313225746155D-09
    9.676084547189D-01 3.119062500000D+02 2.876257298679D+00-8.321775206769D-09
    2.782258749387D-10 1.000000000000D+00 1.533000000000D+03 0.000000000000D+00
    2.000000000000D+00 0.000000000000D+00-1.071020960808D-08 1.040000000000D+02
    5.256180000000D+05 4.000000000000D+00
18 09  5 30  4  0  0.0-5.260575562716D-05 3.183231456205D-12 0.000000000000D+00
    6.400000000000D+01-3.750000000000D+00 4.837701509686D-09-1.520619510878D+00
   -2.682209014893D-07 1.041111291852D-02 7.644295692444D-06 5.153595563889D+03
    5.328000000000D+05 2.700835466385D-07 6.779765335640D-01-2.309679985046D-07
    9.425524891631D-01 2.243125000000D+02-2.422146864619D+00-8.149268021152D-09
   -4.603763193788D-10 1.000000000000D+00 1.533000000000D+03 0.000000000000D+00
    2.000000000000D+00 0.000000000000D+00-1.071020960808D-08 6.400000000000D+01
    5.256180000000D+05 4.000000000000D+00
25 09  5 30  4  0  0.0 4.376438446343D-04 1.887201506179D-11 0.000000000000D+00
    4.000000000000D+01 1.134375000000D+01 4.544832167645D-09-1.102900073975D+00
    6.724148988724D-07 1.141256466508D-02 4.408881068230D-06 5.153649694443D+03
    5.328000000000D+05-1.396983861923D-07 2.649251537058D+00 4.097819328308D-08
    9.698114352590D-01 3.054687500000D+02-1.207091835237D+00-8.422136530078D-09
    3.735869899691D-10 1.000000000000D+00 1.533000000000D+03 0.000000000000D+00
    4.000000000000D+00 0.000000000000D+00-7.450580596924D-09 4.000000000000D+01
    5.256180000000D+05 4.000000000000D+00
22 09  5 30  4  0  0.0 1.986045390368D-04-7.958078640513D-13 0.000000000000D+00
    3.100000000000D+01-5.093750000000D+00 4.838415825154D-09-2.555486507893D+00
   -2.793967723846D-07 4.999214550480D-03 7.769092917442D-06 5.153655818939D+03
    5.328000000000D+05-4.470348358154D-08 6.836560789398D-01-1.303851604462D-07
    9.402132670622D-01 2.206562500000D+02-1.885323337867D+00-8.108552039454D-09
   -4.321608583773D-10 1.000000000000D+00 1.533000000000D+03 0.000000000000D+00
    2.000000000000D+00 0.000000000000D+00-1.769512891769D-08 3.100000000000D+01
    5.256180000000D+05 4.000000000000D+00
15 09  5 30  4  0  0.0-2.964171580970D-04-3.524291969370D-12 0.000000000000D+00
    7.800000000000D+01 6.415625000000D+01 4.378396663510D-09 3.084064314446D+00
    3.337860107422D-06 1.436537713744D-03 9.402632713318D-06 5.153625030518D+03
    5.328000000000D+05 3.911554813385D-08 1.681559246892D+00 5.587935447693D-09
    9.562138999071D-01 1.931250000000D+02-4.684769201156D-01-8.091408468212D-09
    9.893269237232D-11 1.000000000000D+00 1.533000000000D+03 0.000000000000D+00
    2.800000000000D+00 0.000000000000D+00-9.778887033463D-09 7.800000000000D+01
    5.256180000000D+05 4.000000000000D+00
11 09  5 30  4  0  0.0-4.466623067856D-06-1.477928890381D-12 0.000000000000D+00
    8.000000000000D+01 4.184375000000D+01 6.604203663020D-09 5.555262014733D-01
    2.447515726089D-06 9.360151598230D-03 6.090849637985D-06 5.153680913925D+03
    5.328000000000D+05-2.980232238770D-08-6.116687680594D-01 1.527369022369D-07
    8.894126482468D-01 2.205000000000D+02 6.965965446364D-01-9.219669750538D-09
   -4.464471677451D-11 1.000000000000D+00 1.533000000000D+03 0.000000000000D+00
    2.000000000000D+00 0.000000000000D+00-1.164153218269D-08 8.000000000000D+01
    5.256180000000D+05 4.000000000000D+00
28 09  5 30  3 59 44.0-2.512149512768D-05-2.273736754432D-13 0.000000000000D+00
    1.300000000000D+01-9.803125000000D+01 4.462328731046D-09-2.305515393056D+00
   -5.107372999191D-06 1.488176651765D-02 7.830560207367D-06 5.153650987625D+03
    5.327840000000D+05 2.421438694000D-07-2.462665805516D+00 9.872019290924D-08
    9.667664809959D-01 2.245937500000D+02-2.024004062865D+00-7.927115910482D-09
    5.928818387655D-11 1.000000000000D+00 1.533000000000D+03 0.000000000000D+00
    2.000000000000D+00 0.000000000000D+00-1.071020960808D-08 1.300000000000D+01
    5.256180000000D+05 4.000000000000D+00
15 09  5 30  3 59 44.0-2.964171580970D-04-3.524291969370D-12 0.000000000000D+00
    8.000000000000D+00 6.415625000000D+01 4.378396663510D-09 3.081728888618D+00
    3.337860107422D-06 1.436542137526D-03 9.402632713318D-06 5.153625017166D+03
    5.327840000000D+05 3.911554813385D-08 1.681559385869D+00 5.587935447693D-09
    9.562138823521D-01 1.931250000000D+02-4.684751953352D-01-8.091408468212D-09
    9.893269237232D-11 1.000000000000D+00 1.533000000000D+03 0.000000000000D+00
    2.000000000000D+00 0.000000000000D+00-9.778887033463D-09 8.000000000000D+00
    5.259660000000D+05 4.000000000000D+00
26 09  5 30  4  0  0.0 6.243260577321D-05 1.023181539495D-12 0.000000000000D+00
    7.900000000000D+01 5.056250000000D+01 3.561219767669D-09 9.823755213922D-01
    2.762302756310D-06 2.041148894932D-02 1.008063554764D-05 5.154895729065D+03
    5.328000000000D+05-2.589076757431D-07 1.751281853793D+00 1.303851604462D-08
    9.925208641236D-01 2.056250000000D+02 1.010353225473D+00-7.962831683902D-09
   -4.357324357192D-11 1.000000000000D+00 1.533000000000D+03 0.000000000000D+00
    2.000000000000D+00 0.000000000000D+00-6.519258022308D-09 7.900000000000D+01
    5.262060000000D+05 4.000000000000D+00
27 09  5 30  3 59 44.0 5.315756425261D-05 3.069544618484D-12 0.000000000000D+00
    5.400000000000D+01 2.253125000000D+01 4.380539609915D-09-3.119802629239D+00
    8.922070264816D-07 2.129355131183D-02 3.751367330551D-06 5.153789894104D+03
    5.327840000000D+05 3.911554813385D-07 2.685630036505D+00-4.284083843231D-08
    9.745488526143D-01 3.100937500000D+02-1.591547613478D+00-7.963545999370D-09
    3.317995350682D-10 1.000000000000D+00 1.533000000000D+03 0.000000000000D+00
    2.000000000000D+00 0.000000000000D+00-4.190951585770D-09 5.400000000000D+01
    5.291460000000D+05 4.000000000000D+00
17 09  5 30  3 59 44.0 6.160652264953D-05 1.932676241267D-12 0.000000000000D+00
    1.000000000000D+00-6.875000000000D-01 4.566975947165D-09-2.821560314593D+00
   -6.146728992462D-08 4.507147241384D-03 1.120008528233D-05 5.153690631866D+03
    5.327840000000D+05-6.146728992462D-08-1.428437113305D+00-9.499490261078D-08
    9.593506478909D-01 1.593750000000D+02-2.641036219222D+00-7.932830434229D-09
    1.871506527187D-10 1.000000000000D+00 1.533000000000D+03 0.000000000000D+00
    2.000000000000D+00 0.000000000000D+00-1.024454832077D-08 1.000000000000D+00
    5.303760000000D+05 4.000000000000D+00
 9 09  5 30  3 59 44.0 5.848007276654D-05 2.046363078989D-12 0.000000000000D+00
    3.000000000000D+01 1.715625000000D+01 4.490544192047D-09-2.328139209029D-01
    7.580965757370D-07 2.057669009082D-02 4.809349775314D-06 5.153632175446D+03
    5.327840000000D+05-2.756714820862D-07 2.709739896366D+00 1.154839992523D-07
    9.765090033825D-01 3.012500000000D+02 1.477425232211D+00-8.621430545759D-09
    3.639437311458D-10 1.000000000000D+00 1.533000000000D+03 0.000000000000D+00
    2.000000000000D+00 0.000000000000D+00-5.587935447693D-09 3.000000000000D+01
    5.318160000000D+05 4.000000000000D+00
32 09  5 30  4  0  0.0 2.545379102230D-04-5.343281372916D-12 0.000000000000D+00
    1.220000000000D+02 4.531250000000D+00 4.346966782901D-09 1.495793249793D+00
   -2.607703208923D-08 1.330033922568D-02 7.992610335350D-06 5.153562231064D+03
    5.328000000000D+05 2.533197402954D-07 7.337318628086D-01-1.583248376846D-07
    9.641773778579D-01 2.235937500000D+02-1.163239322433D+00-7.968903365383D-09
   -4.303750697063D-10 1.000000000000D+00 1.533000000000D+03 0.000000000000D+00
    2.000000000000D+00 0.000000000000D+00-3.259629011154D-09 1.220000000000D+02
    5.319360000000D+05 4.000000000000D+00
